QIANFAN-49              
1 62250U 24232P   25242.92747650  .00000063  00000+0  78196-4 0  9996
2 62250  88.9946  51.7107 0015699 130.5428 229.7093 13.50958390 53828
QIANFAN-50              
1 62251U 24232Q   25242.87818430  .00000073  00000+0  94073-4 0  9999
2 62251  88.9952  51.7182 0017319 132.3247 227.9375 13.50964978 53843
QIANFAN-51              
1 62252U 24232R   25242.93579746  .00000070  00000+0  89036-4 0  9991
2 62252  88.9945  51.7126 0014743 134.7625 225.4729 13.50967433 53843
QIANFAN-52              
1 62253U 24232S   25242.89053854  .00000063  00000+0  77953-4 0  9991
2 62253  88.9942  51.5947 0016901 128.4646 231.8024 13.50961935 53920
QIANFAN-53              
1 62254U 24232T   25242.94402185  .00000084  00000+0  11083-3 0  9997
2 62254  88.9949  51.6861 0015758 129.0527 231.2029 13.50965986 53893
QIANFAN-54              
1 62255U 24232U   25242.91109738  .00000070  00000+0  89198-4 0  9991
2 62255  88.9941  51.3768 0003058 136.4851 223.6542 13.50968055 85396
QIANFAN-55              
1 62785U 25016A   25242.93691050  .00000095  00000+0  12847-3 0  9998
2 62785  88.9803 113.9304 0015759 292.5070  67.4412 13.50962035 33171
QIANFAN-56              
1 62786U 25016B   25242.95352711  .00000095  00000+0  12886-3 0  9992
2 62786  88.9776 113.7933 0014464 295.4806  64.4849 13.50961022 33220
